{
  "generated_at": "2026-06-12T10:13:13+00:00",
  "source": "celestrak.org",
  "satellite_count": 9,
  "satellites": [
    {
      "id": "terra",
      "name": "TERRA",
      "platform": "EOS",
      "sensor": "MODIS",
      "swath_km": 2330,
      "color": "#39d0d8",
      "norad": 25994,
      "tle1": "1 25994U 99068A   26162.96169045  .00000319  00000+0  73983-4 0  9994",
      "tle2": "2 25994  97.9458 212.7150 0001181 210.9434 272.5846 14.61098896408845"
    },
    {
      "id": "aqua",
      "name": "AQUA",
      "platform": "EOS",
      "sensor": "MODIS",
      "swath_km": 2330,
      "color": "#2bb673",
      "norad": 27424,
      "tle1": "1 27424U 02022A   26162.92162943  .00000643  00000+0  13765-3 0  9995",
      "tle2": "2 27424  98.4275 132.0993 0001312  53.2172   7.4768 14.62150095282502"
    },
    {
      "id": "snpp",
      "name": "SUOMI NPP",
      "platform": "JPSS",
      "sensor": "VIIRS",
      "swath_km": 3000,
      "color": "#ff8c42",
      "norad": 37849,
      "tle1": "1 37849U 11061A   26162.98360067  .00000039  00000+0  39310-4 0  9997",
      "tle2": "2 37849  98.7954 103.8952 0001821  18.5029 341.6213 14.19516304757700"
    },
    {
      "id": "noaa20",
      "name": "NOAA 20",
      "platform": "JPSS",
      "sensor": "VIIRS",
      "swath_km": 3000,
      "color": "#ffaa00",
      "norad": 43013,
      "tle1": "1 43013U 17073A   26162.92631339  .00000045  00000+0  42376-4 0  9996",
      "tle2": "2 43013  98.7772 102.4357 0000340  55.9435 304.1773 14.19510819443727"
    },
    {
      "id": "noaa21",
      "name": "NOAA 21",
      "platform": "JPSS",
      "sensor": "VIIRS",
      "swath_km": 3000,
      "color": "#ff5a3a",
      "norad": 54234,
      "tle1": "1 54234U 22150A   26162.88892287  .00000028  00000+0  34005-4 0  9992",
      "tle2": "2 54234  98.7060 101.7670 0001370 166.0993 194.0221 14.19564579185797"
    },
    {
      "id": "sentinel2a",
      "name": "SENTINEL-2A",
      "platform": "Copernicus",
      "sensor": "MSI",
      "swath_km": 290,
      "color": "#b388ff",
      "norad": 40697,
      "tle1": "1 40697U 15028A   26162.96992522 -.00000154  00000+0 -42052-4 0  9991",
      "tle2": "2 40697  98.5685 237.8952 0001102  87.4418 272.6891 14.30813168572982"
    },
    {
      "id": "sentinel2b",
      "name": "SENTINEL-2B",
      "platform": "Copernicus",
      "sensor": "MSI",
      "swath_km": 290,
      "color": "#9d6dff",
      "norad": 42063,
      "tle1": "1 42063U 17013A   26162.96273203  .00000051  00000+0  35937-4 0  9992",
      "tle2": "2 42063  98.5692 237.8107 0001190  86.8052 273.3267 14.30815329483892"
    },
    {
      "id": "sentinel3a",
      "name": "SENTINEL-3A",
      "platform": "Copernicus",
      "sensor": "OLCI",
      "swath_km": 1270,
      "color": "#7a4fff",
      "norad": 41335,
      "tle1": "1 41335U 16011A   26162.95682227  .00000075  00000+0  48869-4 0  9993",
      "tle2": "2 41335  98.6249 230.4154 0001375 103.4288 256.7046 14.26738470537318"
    },
    {
      "id": "sentinel3b",
      "name": "SENTINEL-3B",
      "platform": "Copernicus",
      "sensor": "OLCI",
      "swath_km": 1270,
      "color": "#5e3bff",
      "norad": 43437,
      "tle1": "1 43437U 18039A   26162.43904625  .00000076  00000+0  49397-4 0  9990",
      "tle2": "2 43437  98.6248 230.0537 0000809  80.8461 279.2811 14.26740095423304"
    }
  ]
}